O3B FM8                 
1 40082U 14038D   26032.60645834 -.00000025  00000+0  00000+0 0  9995
2 40082   0.0562 351.9294 0002634 323.7772  44.2648  5.00115909211167
O3B FM10                
1 40348U 14083A   26015.04307774 -.00000018  00000+0  00000+0 0  9999
2 40348   0.0506 359.9234 0002713 293.4028  66.6427  5.00115333202228
O3B FM11                
1 40349U 14083B   26032.64621370 -.00000025  00000+0  00000+0 0  9994
2 40349   0.0543   1.9908 0003276 301.8922  56.0783  5.00115542203135
O3B FM12                
1 40350U 14083C   26032.87322154 -.00000026  00000+0  00000+0 0  9990
2 40350   0.0539   1.0325 0002727 306.5544  52.3808  5.00115858203157
O3B FM9                 
1 40351U 14083D   26032.90004820 -.00000026  00000+0  00000+0 0  9992
2 40351   0.0551   2.5436 0002762 309.6219  47.8035  5.00115849203299
ASTRA 2G                
1 40364U 14089A   26032.92414331  .00000140  00000+0  00000+0 0  9992
2 40364   0.0545 333.6169 0003077  39.9130 119.4360  1.00269908 40616
SES-9                   
1 41380U 16013A   26032.77127966 -.00000355  00000+0  00000+0 0  9997
2 41380   0.0474 272.4070 0001016 103.9336 141.5491  1.00270549 36088
SES-10                  
1 42432U 17017A   26032.33469366 -.00000282  00000+0  00000+0 0  9995
2 42432   0.0142  54.1965 0002963 263.4234 227.4954  1.00272115 32386
SES-15                  
1 42709U 17026A   26032.75028903  .00000050  00000+0  00000+0 0  9998
2 42709   0.0334 320.8404 0000827 357.2405 314.7870  1.00270971  6078
SES-11 (ECHOSTAR 105)   
1 42967U 17063A   26032.89770984 -.00000099  00000+0  00000+0 0  9997
2 42967   0.0145  44.7310 0002469 248.4048  57.1549  1.00270635 30367
SES-14                  
1 43175U 18012B   26032.76649577 -.00000288  00000+0  00000+0 0  9993
2 43175   0.0099  31.8023 0001177 263.7741  64.8065  1.00272725  5665
O3B FM15                
1 43231U 18024A   26032.76690566 -.00000025  00000+0  00000+0 0  9992
2 43231   0.0463 359.5249 0002784 308.4536  51.9887  5.00115591144245
O3B FM16                
1 43232U 18024B   26032.81929376 -.00000026  00000+0  00000+0 0  9994
2 43232   0.0421 359.7450 0002850 307.7669  52.4546  5.00115793144162
O3B FM14                
1 43233U 18024C   26032.66014087 -.00000025  00000+0  00000+0 0  9991
2 43233   0.0413 357.9949 0002883 314.9796  46.9937  5.00115524144179
SES-12                  
1 43488U 18049A   26032.93740339 -.00000279  00000+0  00000+0 0  9997
2 43488   0.0156   5.9932 0002542 286.8051 271.7712  1.00272844 28063
O3B FM20                
1 44112U 19020A   26032.68615433 -.00000025  00000+0  00000+0 0  9999
2 44112   0.0497 359.5822 0002981 301.4426  58.9383  5.00115426124780
O3B FM19                
1 44113U 19020B   26031.31407565 -.00000024  00000+0  00000+0 0  9993
2 44113   0.0617  11.8532 0004967 322.0231  26.0917  5.00115915124591
